NORAD_CAT_ID,OBJECT_NAME,OBJECT_TYPE,EPOCH,MEAN_MOTION,ECCENTRICITY,INCLINATION,RA_OF_ASC_NODE,ARG_OF_PERICENTER,MEAN_ANOMALY,BSTAR,MEAN_MOTION_DOT,MEAN_MOTION_DDOT,TLE_LINE0,TLE_LINE1,TLE_LINE2,SEMIMAJOR_AXIS,PERIOD,APOGEE,PERIGEE,DECAYED
53141.0,STARLINK-4103,PAYLOAD,2023-04-28 10:47:19,15.08851665,9.84e-05,53.2153,190.8764,122.1594,237.9494,0.0010952,0.00017191,0.0,0 STARLINK-4103,1 53141U 22083K   23118.44953415  .00017191  00000-0  10952-2 0  9997,2 53141  53.2153 190.8764 0000984 122.1594 237.9494 15.08851665 43904,6917.845,95.437,540.39,539.029,0.0
53141.0,STARLINK-4103,PAYLOAD,2023-04-28 21:55:01,15.08840993,6.5e-05,53.2152,188.7945,112.3327,247.7734,6.3616e-05,7.25e-06,0.0,0 STARLINK-4103,1 53141U 22083K   23118.91321004  .00000725  00000-0  63616-4 0  9994,2 53141  53.2152 188.7945 0000650 112.3327 247.7734 15.08840993 43970,6917.877,95.437,540.192,539.293,0.0
53141.0,STARLINK-4103,PAYLOAD,2023-04-29 12:13:29,15.08848952,0.0001099,53.216,186.1166,102.4423,257.6693,0.00095919,0.00015014,0.0,0 STARLINK-4103,1 53141U 22083K   23119.50937344  .00015014  00000-0  95919-3 0  9997,2 53141  53.2160 186.1166 0001099 102.4423 257.6693 15.08848952 43439,6917.853,95.437,540.478,538.958,0.0
53141.0,STARLINK-4103,PAYLOAD,2023-04-30 10:28:53,15.08843534,9.95e-05,53.2163,181.956,110.7594,249.3505,0.00047491,7.279e-05,0.0,0 STARLINK-4103,1 53141U 22083K   23120.43673588  .00007279  00000-0  47491-3 0  9994,2 53141  53.2163 181.9560 0000995 110.7594 249.3505 15.08843534 44205,6917.87,95.437,540.423,539.046,0.0
53141.0,STARLINK-4103,PAYLOAD,2023-05-01 10:19:41,15.08839505,0.0001235,53.2164,177.4899,91.3061,268.8072,0.00013751,1.901e-05,0.0,0 STARLINK-4103,1 53141U 22083K   23121.43033943  .00001901  00000-0  13751-3 0  9998,2 53141  53.2164 177.4899 0001235  91.3061 268.8072 15.08839505 44356,6917.882,95.438,540.601,538.893,0.0
53141.0,STARLINK-4103,PAYLOAD,2023-05-01 15:05:50,15.08840148,0.0001166,53.2167,176.598,105.6995,254.4126,0.00022361,3.273e-05,0.0,0 STARLINK-4103,1 53141U 22083K   23121.62905908  .00003273  00000-0  22361-3 0  9999,2 53141  53.2167 176.5980 0001166 105.6995 254.4126 15.08840148 43757,6917.88,95.438,540.552,538.938,0.0
53141.0,STARLINK-4103,PAYLOAD,2023-05-02 11:45:50,15.08852364,0.0001182,53.216,172.7321,99.387,260.7256,0.00027459,4.086e-05,0.0,0 STARLINK-4103,1 53141U 22083K   23122.49017107  .00004086  00000-0  27459-3 0  9996,2 53141  53.2160 172.7321 0001182  99.3870 260.7256 15.08852364 44518,6917.843,95.437,540.525,538.89,0.0
53141.0,STARLINK-4103,PAYLOAD,2023-05-02 13:21:13,15.08852893,0.0001161,53.2159,172.437,94.2198,265.8926,0.00027492,4.092e-05,0.0,0 STARLINK-4103,1 53141U 22083K   23122.55641095  .00004092  00000-0  27492-3 0  9996,2 53141  53.2159 172.4370 0001161  94.2198 265.8926 15.08852893 43898,6917.841,95.437,540.509,538.903,0.0
53141.0,STARLINK-4103,PAYLOAD,2023-05-03 03:39:42,15.08835871,8.01e-05,53.2147,169.7621,76.814,283.2941,-2.5885e-05,-7e-06,0.0,0 STARLINK-4103,1 53141U 22083K   23123.15257830 -.00000700  00000-0 -25885-4 0  9992,2 53141  53.2147 169.7621 0000801  76.8140 283.2941 15.08835871 44615,6917.893,95.438,540.312,539.204,0.0
53141.0,STARLINK-4103,PAYLOAD,2023-05-03 10:01:15,15.08839332,8.91e-05,53.2143,168.5726,81.4794,278.6299,1.9552e-05,2.3e-07,0.0,0 STARLINK-4103,1 53141U 22083K   23123.41753734  .00000023  00000-0  19552-4 0  9995,2 53141  53.2143 168.5726 0000891  81.4794 278.6299 15.08839332 44025,6917.882,95.438,540.364,539.131,0.0
53141.0,STARLINK-4103,PAYLOAD,2023-05-03 14:47:24,15.0884122,9.8e-05,53.2148,167.6808,80.449,279.6613,5.9819e-05,6.64e-06,0.0,0 STARLINK-4103,1 53141U 22083K   23123.61625707  .00000664  00000-0  59819-4 0  9996,2 53141  53.2148 167.6808 0000980  80.4490 279.6613 15.08841220 44055,6917.877,95.437,540.42,539.064,0.0
53141.0,STARLINK-4103,PAYLOAD,2023-05-04 13:02:48,15.08842151,0.0001075,53.2153,163.519,93.2349,266.8766,0.00017549,2.506e-05,0.0,0 STARLINK-4103,1 53141U 22083K   23124.54361861  .00002506  00000-0  17549-3 0  9997,2 53141  53.2153 163.5190 0001075  93.2349 266.8766 15.08842151 44827,6917.874,95.437,540.482,538.995,0.0
53141.0,STARLINK-4103,PAYLOAD,2023-05-04 19:24:21,15.08839395,0.0001041,53.2148,162.3292,81.9259,278.1851,9.3961e-05,1.208e-05,0.0,0 STARLINK-4103,1 53141U 22083K   23124.80857992  .00001208  00000-0  93961-4 0  9992,2 53141  53.2148 162.3292 0001041  81.9259 278.1851 15.08839395 44230,6917.882,95.438,540.467,539.027,0.0
53141.0,STARLINK-4103,PAYLOAD,2023-05-05 19:15:08,15.08839629,0.0001139,53.2152,157.8691,86.178,273.9342,0.00012468,1.697e-05,0.0,0 STARLINK-4103,1 53141U 22083K   23125.80218289  .00001697  00000-0  12468-3 0  9997,2 53141  53.2152 157.8691 0001139  86.1780 273.9342 15.08839629 45016,6917.882,95.438,540.534,538.959,0.0
53141.0,STARLINK-4103,PAYLOAD,2023-05-06 07:58:13,15.08842471,0.0001144,53.215,155.49,86.5026,273.6097,0.00011612,1.561e-05,0.0,0 STARLINK-4103,1 53141U 22083K   23126.33210234  .00001561  00000-0  11612-3 0  9998,2 53141  53.2150 155.4900 0001144  86.5026 273.6097 15.08842471 44465,6917.873,95.437,540.529,538.946,0.0
53141.0,STARLINK-4103,PAYLOAD,2023-05-07 01:27:28,15.0884599,0.0001157,53.2146,152.219,86.5125,273.5999,0.00019165,2.764e-05,0.0,0 STARLINK-4103,1 53141U 22083K   23127.06074083  .00002764  00000-0  19165-3 0  9996,2 53141  53.2146 152.2190 0001157  86.5125 273.5999 15.08845990 45202,6917.862,95.437,540.527,538.927,0.0
53141.0,STARLINK-4103,PAYLOAD,2023-05-07 07:49:00,15.08848049,0.0001137,53.2147,151.0294,87.0347,273.0776,0.00017129,2.44e-05,0.0,0 STARLINK-4103,1 53141U 22083K   23127.32569920  .00002440  00000-0  17129-3 0  9993,2 53141  53.2147 151.0294 0001137  87.0347 273.0776 15.08848049 44615,6917.856,95.437,540.507,538.934,0.0
53141.0,STARLINK-4103,PAYLOAD,2023-05-07 18:56:42,15.08844451,0.0001117,53.2147,148.9479,85.8335,274.2784,0.00013889,1.924e-05,0.0,0 STARLINK-4103,1 53141U 22083K   23127.78938067  .00001924  00000-0  13889-3 0  9990,2 53141  53.2147 148.9479 0001117  85.8335 274.2784 15.08844451 44688,6917.867,95.437,540.505,538.959,0.0
53141.0,STARLINK-4103,PAYLOAD,2023-05-08 07:39:47,15.08837396,0.0001181,53.2145,146.5688,87.5582,272.5546,3.6806e-05,2.98e-06,0.0,0 STARLINK-4103,1 53141U 22083K   23128.31930478  .00000298  00000-0  36806-4 0  9996,2 53141  53.2145 146.5688 0001181  87.5582 272.5546 15.08837396 45392,6917.888,95.438,540.57,538.936,0.0
53141.0,STARLINK-4103,PAYLOAD,2023-05-08 18:47:29,15.08841356,0.0001199,53.2158,144.4877,86.4278,273.6851,5.1192e-05,5.27e-06,0.0,0 STARLINK-4103,1 53141U 22083K   23128.78298347  .00000527  00000-0  51192-4 0  9999,2 53141  53.2158 144.4877 0001199  86.4278 273.6851 15.08841356 44832,6917.876,95.437,540.571,538.912,0.0
53141.0,STARLINK-4103,PAYLOAD,2023-05-09 10:41:20,15.08845485,0.0001226,53.2158,141.5139,87.6158,272.4975,5.8838e-05,6.49e-06,0.0,0 STARLINK-4103,1 53141U 22083K   23129.44537956  .00000649  00000-0  58838-4 0  9994,2 53141  53.2158 141.5139 0001226  87.6158 272.4975 15.08845485 45564,6917.864,95.437,540.577,538.88,0.0
53141.0,STARLINK-4103,PAYLOAD,2023-05-10 05:45:59,15.08835039,0.0001243,53.216,137.9451,87.8218,272.2916,7.9323e-05,9.75e-06,0.0,0 STARLINK-4103,1 53141U 22083K   23130.24026749  .00000975  00000-0  79323-4 0  9991,2 53141  53.2160 137.9451 0001243  87.8218 272.2916 15.08835039 45052,6917.896,95.438,540.62,538.901,0.0
53141.0,STARLINK-4103,PAYLOAD,2023-05-10 16:53:41,15.08837765,0.0001238,53.216,135.8634,87.6895,272.4239,6.9138e-05,8.13e-06,0.0,0 STARLINK-4103,1 53141U 22083K   23130.70394702  .00000813  00000-0  69138-4 0  9993,2 53141  53.2160 135.8634 0001238  87.6895 272.4239 15.08837765 45121,6917.887,95.438,540.609,538.896,0.0
53141.0,STARLINK-4103,PAYLOAD,2023-05-11 07:12:09,15.0883993,0.00013,53.2164,133.1881,94.0678,266.0463,4.3059e-05,3.97e-06,0.0,0 STARLINK-4103,1 53141U 22083K   23131.30010724  .00000397  00000-0  43059-4 0  9990,2 53141  53.2164 133.1881 0001300  94.0678 266.0463 15.08839930 45844,6917.881,95.438,540.645,538.846,0.0
53141.0,STARLINK-4103,PAYLOAD,2023-05-11 16:44:28,15.08838032,0.0001282,53.2162,131.4038,91.1221,268.9918,2.4571e-05,1.03e-06,0.0,0 STARLINK-4103,1 53141U 22083K   23131.69754945  .00000103  00000-0  24571-4 0  9995,2 53141  53.2162 131.4038 0001282  91.1221 268.9918 15.08838032 45273,6917.886,95.438,540.638,538.865,0.0
53141.0,STARLINK-4103,PAYLOAD,2023-05-12 03:52:10,15.08831675,0.0001285,53.2163,129.323,96.3882,263.7257,4.0588e-05,3.58e-06,0.0,0 STARLINK-4103,1 53141U 22083K   23132.16123494  .00000358  00000-0  40588-4 0  9995,2 53141  53.2163 129.3230 0001285  96.3882 263.7257 15.08831675 45340,6917.906,95.438,540.66,538.882,0.0
53141.0,STARLINK-4103,PAYLOAD,2023-05-12 16:35:15,15.08836392,0.0001289,53.2164,126.9447,97.7223,262.3915,7.645e-05,9.29e-06,0.0,0 STARLINK-4103,1 53141U 22083K   23132.69115303  .00000929  00000-0  76450-4 0  9994,2 53141  53.2164 126.9447 0001289  97.7223 262.3915 15.08836392 46058,6917.891,95.438,540.648,538.865,0.0
53141.0,STARLINK-4103,PAYLOAD,2023-05-13 05:18:20,15.08844752,0.000127,53.2163,124.5657,97.929,262.1846,0.00012291,1.669e-05,0.0,0 STARLINK-4103,1 53141U 22083K   23133.22106664  .00001669  00000-0  12291-3 0  9998,2 53141  53.2163 124.5657 0001270  97.9290 262.1846 15.08844752 46139,6917.866,95.437,540.609,538.852,0.0
53141.0,STARLINK-4103,PAYLOAD,2023-05-13 11:39:52,15.08847571,0.0001271,53.2162,123.3749,94.5315,265.5822,0.00013546,1.869e-05,0.0,0 STARLINK-4103,1 53141U 22083K   23133.48602372  .00001869  00000-0  13546-3 0  9999,2 53141  53.2162 123.3749 0001271  94.5315 265.5822 15.08847571 45546,6917.857,95.437,540.602,538.843,0.0
53141.0,STARLINK-4103,PAYLOAD,2023-05-13 16:26:02,15.08833167,9.58e-05,53.2161,122.4844,97.3668,262.7433,2.2932e-05,7.7e-07,0.0,0 STARLINK-4103,1 53141U 22083K   23133.68475494  .00000077  00000-0  22932-4 0  9994,2 53141  53.2161 122.4844 0000958  97.3668 262.7433 15.08833167 46201,6917.901,95.438,540.429,539.104,0.0
